NORAD_CAT_ID,OBJECT_NAME,OBJECT_TYPE,EPOCH,MEAN_MOTION,ECCENTRICITY,INCLINATION,RA_OF_ASC_NODE,ARG_OF_PERICENTER,MEAN_ANOMALY,BSTAR,MEAN_MOTION_DOT,MEAN_MOTION_DDOT,TLE_LINE0,TLE_LINE1,TLE_LINE2,SEMIMAJOR_AXIS,PERIOD,APOGEE,PERIGEE,DECAYED
51130.0,STARLINK-3395,PAYLOAD,2022-02-23 22:00:00,15.73141076,0.0003201,53.2151,96.948,13.5605,11.492,0.00048197,0.00067406,0.0,0 STARLINK-3395,1 51130U 22005AC  22054.91667824  .00067406  00000-0  48197-3 0  9990,2 51130  53.2151  96.9480 0003201  13.5605  11.4920 15.73141076  3714,6728.063,91.537,352.082,347.775,0.0
51130.0,STARLINK-3395,PAYLOAD,2022-02-24 06:00:00,15.73205953,0.0003415,53.2176,95.279,18.5701,95.217,-2.0024e-05,-3.434e-05,0.0,0 STARLINK-3395,1 51130U 22005AC  22055.25001157 -.00003434  00000-0 -20024-4 0  9992,2 51130  53.2176  95.2790 0003415  18.5701  95.2170 15.73205953  7015,6727.878000000002,91.533,352.041,347.446,0.0
51130.0,STARLINK-3395,PAYLOAD,2022-02-24 14:00:01,15.73229153,0.000349,53.2146,93.6509,14.2256,188.7441,-4.551e-05,-7.016e-05,0.0,0 STARLINK-3395,1 51130U 22005AC  22055.58334491 -.00007016  00000-0 -45510-4 0  9995,2 51130  53.2146  93.6509 0003490  14.2256 188.7441 15.73229153  3689,6727.812,91.531,352.025,347.329,0.0
51130.0,STARLINK-3395,PAYLOAD,2022-02-24 22:00:00,15.73184029,0.0003196,53.2146,91.9993,13.1443,278.8089,0.00036164,0.00050413,0.0,0 STARLINK-3395,1 51130U 22005AC  22055.91667824  .00050413  00000-0  36164-3 0  9992,2 51130  53.2146  91.9993 0003196  13.1443 278.8089 15.73184029  3687,6727.941,91.534,351.956,347.655,0.0
51130.0,STARLINK-3395,PAYLOAD,2022-02-25 00:00:00,15.7319936,0.0003163,53.2147,91.5865,12.877,31.3026,0.00010061,0.00013522,0.0,0 STARLINK-3395,1 51130U 22005AC  22056.00001157  .00013522  00000-0  10061-3 0  9992,2 51130  53.2147  91.5865 0003163  12.8770  31.3026 15.73199360  7136,6727.897,91.533,351.89,347.634,0.0
51130.0,STARLINK-3395,PAYLOAD,2022-02-25 14:00:01,15.73187088,0.0003452,53.215,88.7023,8.3172,101.4832,-0.00018662,-0.00026726,0.0,0 STARLINK-3395,1 51130U 22005AC  22056.58334491 -.00026726  00000-0 -18662-3 0  9992,2 51130  53.2150  88.7023 0003452   8.3172 101.4832 15.73187088  7229,6727.932,91.534,352.119,347.475,0.0
51130.0,STARLINK-3395,PAYLOAD,2022-02-25 22:00:00,15.73137876,0.0003242,53.2152,87.0507,7.9891,190.7277,0.00060623,0.00085114,0.0,0 STARLINK-3395,1 51130U 22005AC  22056.91667824  .00085114  00000-0  60623-3 0  9996,2 51130  53.2152  87.0507 0003242   7.9891 190.7277 15.73137876  3691,6728.071999999999,91.537,352.119,347.756,0.0
51130.0,STARLINK-3395,PAYLOAD,2022-02-26 06:00:00,15.73208189,0.0003378,53.2151,85.4024,10.4582,277.1451,7.6367e-05,0.00010114,0.0,0 STARLINK-3395,1 51130U 22005AC  22057.25001157  .00010114  00000-0  76367-4 0  9996,2 51130  53.2151  85.4024 0003378  10.4582 277.1451 15.73208189  7337,6727.871999999999,91.533,352.01,347.464,0.0
51130.0,STARLINK-3395,PAYLOAD,2022-02-26 14:00:01,15.73232845,0.000356,53.2145,83.7538,8.3945,8.1286,-0.00034137,-0.00048344,0.0,0 STARLINK-3395,1 51130U 22005AC  22057.58334491 -.00048344  00000-0 -34137-3 0  9998,2 51130  53.2145  83.7538 0003560   8.3945   8.1286 15.73232845  3704,6727.802,91.531,352.06199999999984,347.271,0.0
51130.0,STARLINK-3395,PAYLOAD,2022-02-26 22:00:00,15.73204649,0.0003371,53.2172,82.0816,10.7997,94.4625,-1.5363999999999996e-06,-8.39e-06,0.0,0 STARLINK-3395,1 51130U 22005AC  22057.91667824 -.00000839  00000-0 -15364-5 0  9994,2 51130  53.2172  82.0816 0003371  10.7997  94.4625 15.73204649  7439,6727.882,91.533,352.015,347.47900000000016,0.0
51130.0,STARLINK-3395,PAYLOAD,2022-02-27 06:00:00,15.73207563,0.0003364,53.2149,80.4538,9.1734,185.2521,3.0449e-05,3.654e-05,0.0,0 STARLINK-3395,1 51130U 22005AC  22058.25001157  .00003654  00000-0  30449-4 0  9999,2 51130  53.2149  80.4538 0003364   9.1734 185.2521 15.73207563  7497,6727.874,91.533,352.00199999999984,347.475,0.0
51130.0,STARLINK-3395,PAYLOAD,2022-02-27 14:00:01,15.73250167,0.0003505,53.2147,78.8049,7.3025,276.0732,-0.00045245,-0.00063803,0.0,0 STARLINK-3395,1 51130U 22005AC  22058.58334491 -.00063803  00000-0 -45245-3 0  9998,2 51130  53.2147  78.8049 0003505   7.3025 276.0732 15.73250167  3704,6727.752,91.53,351.975,347.259,0.0
51130.0,STARLINK-3395,PAYLOAD,2022-02-27 22:00:00,15.732008800000004,0.0003326,53.2149,77.1531,9.1018,3.2611,0.00031907,0.00044406,0.0,0 STARLINK-3395,1 51130U 22005AC  22058.91667824  .00044406  00000-0  31907-3 0  9990,2 51130  53.2149  77.1531 0003326   9.1018   3.2611 15.73200880  7591,6727.893,91.533,351.995,347.52,0.0
51130.0,STARLINK-3395,PAYLOAD,2022-02-28 14:00:01,15.73205959,0.0003596,53.2142,73.8557,11.3162,178.9358,-0.00022819,-0.00032545,0.0,0 STARLINK-3395,1 51130U 22005AC  22059.58334491 -.00032545  00000-0 -22819-3 0  9990,2 51130  53.2142  73.8557 0003596  11.3162 178.9358 15.73205959  7690,6727.878000000002,91.533,352.163,347.324,0.0
51130.0,STARLINK-3395,PAYLOAD,2022-02-28 22:00:00,15.72713376,0.0003567,53.216,72.1898,19.0029,260.2731,0.0036241,0.00530343,0.0,0 STARLINK-3395,1 51130U 22005AC  22059.91667824  .00530343  00000-0  36241-2 0  9996,2 51130  53.2160  72.1898 0003567  19.0029 260.2731 15.72713376  7758,6729.283,91.562,353.548,348.74800000000016,0.0
51130.0,STARLINK-3395,PAYLOAD,2022-03-01 06:00:00,15.73245481,0.0003443,53.2145,70.5561,10.9789,357.1045,-0.00061245,-0.00085904,0.0,0 STARLINK-3395,1 51130U 22005AC  22060.25001157 -.00085904  00000-0 -61245-3 0  9999,2 51130  53.2145  70.5561 0003443  10.9789 357.1045 15.73245481  7804,6727.766,91.531,351.94699999999995,347.314,0.0
51130.0,STARLINK-3395,PAYLOAD,2022-03-01 14:00:01,15.73188701,0.0003563,53.2145,68.9066,9.1795,87.837,0.00024385,0.00033731,0.0,0 STARLINK-3395,1 51130U 22005AC  22060.58334491  .00033731  00000-0  24385-3 0  9998,2 51130  53.2145  68.9066 0003563   9.1795  87.8370 15.73188701  3697,6727.927,91.534,352.19,347.395,0.0
51130.0,STARLINK-3395,PAYLOAD,2022-03-01 22:00:01,15.73224308,0.00033,53.2146,67.2549,9.9086,176.0999,-0.00012573,-0.00018254,0.0,0 STARLINK-3395,1 51130U 22005AC  22060.91668981 -.00018254  00000-0 -12573-3 0  9990,2 51130  53.2146  67.2549 0003300   9.9086 176.0999 15.73224308  7906,6727.826,91.532,351.911,347.471,0.0
51130.0,STARLINK-3395,PAYLOAD,2022-03-02 14:00:01,15.732142,0.0003585,53.2142,63.9574,7.3795,356.412,-6.7788e-05,-0.00010135,0.0,0 STARLINK-3395,1 51130U 22005AC  22061.58334491 -.00010135  00000-0 -67788-4 0  9999,2 51130  53.2142  63.9574 0003585   7.3795 356.4120 15.73214200  3677,6727.855,91.532,352.13199999999995,347.30800000000005,0.0
51130.0,STARLINK-3395,PAYLOAD,2022-03-02 22:00:00,15.73164474,0.0003231,53.2144,62.306,6.7889,85.9537,0.00028134,0.00038994,0.0,0 STARLINK-3395,1 51130U 22005AC  22061.91667824  .00038994  00000-0  28134-3 0  9997,2 51130  53.2144  62.3060 0003231   6.7889  85.9537 15.73164474  3692,6727.996,91.535,352.035,347.68800000000016,0.0
51130.0,STARLINK-3395,PAYLOAD,2022-03-03 06:00:00,15.73204397,0.0003452,53.2146,60.6582,5.2949,176.3506,-0.00051775,-0.00072702,0.0,0 STARLINK-3395,1 51130U 22005AC  22062.25001157 -.00072702  00000-0 -51775-3 0  9990,2 51130  53.2146  60.6582 0003452   5.2949 176.3506 15.73204397  8112,6727.8830000000025,91.533,352.07,347.425,0.0
51130.0,STARLINK-3395,PAYLOAD,2022-03-03 14:00:01,15.73173591,0.0003497,53.2148,59.0084,3.572,266.9689,0.00010915,0.00014709,0.0,0 STARLINK-3395,1 51130U 22005AC  22062.58334491  .00014709  00000-0  10915-3 0  9998,2 51130  53.2148  59.0084 0003497   3.5720 266.9689 15.73173591  8175,6727.97,91.535,352.18800000000016,347.483,0.0
51130.0,STARLINK-3395,PAYLOAD,2022-03-03 22:00:00,15.73167022,0.0003312,53.2152,57.357,6.4366,353.0037,0.00059694,0.00083894,0.0,0 STARLINK-3395,1 51130U 22005AC  22062.91667824  .00083894  00000-0  59694-3 0  9992,2 51130  53.2152  57.3570 0003312   6.4366 353.0037 15.73167022  3694,6727.989000000001,91.535,352.083,347.626,0.0
51130.0,STARLINK-3395,PAYLOAD,2022-03-04 14:00:01,15.73230139,0.0003508,53.2149,54.0593,5.1993,172.2045,-0.00017572,-0.00025252,0.0,0 STARLINK-3395,1 51130U 22005AC  22063.58335648 -.00025252  00000-0 -17572-3 0  9997,2 51130  53.2149  54.0593 0003508   5.1993 172.2045 15.73230139  8323,6727.809,91.531,352.034,347.314,0.0
51130.0,STARLINK-3395,PAYLOAD,2022-03-04 22:00:00,15.7322253,0.0003237,53.2151,52.4082,6.8145,259.4744,0.0003208,0.00044693,0.0,0 STARLINK-3395,1 51130U 22005AC  22063.91667824  .00044693  00000-0  32080-3 0  9997,2 51130  53.2151  52.4082 0003237   6.8145 259.4744 15.73222530  3692,6727.831,91.532,351.874,347.51800000000014,0.0
51130.0,STARLINK-3395,PAYLOAD,2022-03-05 06:00:00,15.73244884,0.0003481999999999,53.2153,50.7606,8.9564,346.3121,-0.00054136,-0.00076091,0.0,0 STARLINK-3395,1 51130U 22005AC  22064.25001157 -.00076091  00000-0 -54136-3 0  9991,2 51130  53.2153  50.7606 0003482   8.9564 346.3121 15.73244884  8435,6727.767,91.531,351.975,347.29,0.0
51130.0,STARLINK-3395,PAYLOAD,2022-03-05 14:00:01,15.73203226,0.0003454,53.2155,49.1104,8.8618,75.3796,8.0003e-05,0.00010623,0.0,0 STARLINK-3395,1 51130U 22005AC  22064.58334491  .00010623  00000-0  80003-4 0  9997,2 51130  53.2155  49.1104 0003454   8.8618  75.3796 15.73203226  8487,6727.886,91.533,352.075,347.427,0.0
51130.0,STARLINK-3395,PAYLOAD,2022-03-05 22:00:01,15.73212555,0.0003303,53.216,47.4592,12.5425,160.6984,-8.027e-05,-0.00011882,0.0,0 STARLINK-3395,1 51130U 22005AC  22064.91668981 -.00011882  00000-0 -80270-4 0  9994,2 51130  53.2160  47.4592 0003303  12.5425 160.6984 15.73212555  3708,6727.859,91.532,351.94699999999995,347.50199999999984,0.0
51130.0,STARLINK-3395,PAYLOAD,2022-03-06 14:00:01,15.73216149,0.0003427,53.2157,44.1617,10.9271,340.1393,0.00025601,0.00035493,0.0,0 STARLINK-3395,1 51130U 22005AC  22065.58334491  .00035493  00000-0  25601-3 0  9992,2 51130  53.2157  44.1617 0003427  10.9271 340.1393 15.73216149  3694,6727.849,91.532,352.02,347.408,0.0
